0 SL-6 R/B(2)
1 17147U 86091D   13282.85523437 -.00000850  00000-0  00000+0 0  4872
2 17147 069.0680 331.8872 6117074 120.1657 171.4075 02.03998577200301
0 SL-6 R/B(2)
1 17147U 86091D   13285.50010565 -.00000751  00000-0  00000+0 0  4881
2 17147 069.0608 331.7093 6116206 120.0817 313.7672 02.03993480200366
0 SL-6 R/B(2)
1 17147U 86091D   13285.57419657 -.00000745  00000-0  00000+0 0  4897
2 17147 069.0713 331.7022 6116072 120.0825 008.1727 02.03994213200366
0 SL-6 R/B(2)
1 17147U 86091D   13289.41681345 -.00000250  00000-0  00000+0 0  4902
2 17147 069.0757 331.4428 6114683 119.9639 310.0537 02.03986608200438
0 SL-6 R/B(2)
1 17147U 86091D   13294.38811403  .00000509  00000-0  00000+0 0  4911
2 17147 069.0823 331.1071 6112882 119.8098 000.6807 02.03981705200547
